[{"OBJECT_NAME":"STARLINK-3973","OBJECT_ID":"2022-052AZ","EPOCH":"2025-12-29T18:35:07.052352","MEAN_MOTION":15.08840974,"ECCENTRICITY":0.0001435,"INCLINATION":53.2149,"RA_OF_ASC_NODE":213.0865,"ARG_OF_PERICENTER":94.4597,"MEAN_ANOMALY":265.6559,"EPHEMERIS_TYPE":0,"CLASSIFICATION_TYPE":"U","NORAD_CAT_ID":52645,"ELEMENT_SET_NO":999,"REV_AT_EPOCH":20057,"BSTAR":2.7071e-5,"MEAN_MOTION_DOT":1.43e-6,"MEAN_MOTION_DDOT":0},{"OBJECT_NAME":"STARLINK-3832","OBJECT_ID":"2022-052BA","EPOCH":"2025-12-29T20:15:47.166624","MEAN_MOTION":15.08839135,"ECCENTRICITY":0.0001423,"INCLINATION":53.2152,"RA_OF_ASC_NODE":212.7059,"ARG_OF_PERICENTER":86.788,"MEAN_ANOMALY":273.3275,"EPHEMERIS_TYPE":0,"CLASSIFICATION_TYPE":"U","NORAD_CAT_ID":52646,"ELEMENT_SET_NO":999,"REV_AT_EPOCH":20059,"BSTAR":1.8134e-5,"MEAN_MOTION_DOT":1.0e-8,"MEAN_MOTION_DDOT":0},{"OBJECT_NAME":"STARLINK-3854","OBJECT_ID":"2022-052BC","EPOCH":"2025-12-29T18:29:47.876064","MEAN_MOTION":15.08837476,"ECCENTRICITY":0.0001667,"INCLINATION":53.2156,"RA_OF_ASC_NODE":212.9993,"ARG_OF_PERICENTER":84.2151,"MEAN_ANOMALY":275.9031,"EPHEMERIS_TYPE":0,"CLASSIFICATION_TYPE":"U","NORAD_CAT_ID":52648,"ELEMENT_SET_NO":999,"REV_AT_EPOCH":20057,"BSTAR":7.6725e-5,"MEAN_MOTION_DOT":9.33e-6,"MEAN_MOTION_DDOT":0},{"OBJECT_NAME":"STARLINK-3868","OBJECT_ID":"2022-052BD","EPOCH":"2025-12-29T17:52:39.984672","MEAN_MOTION":15.08844542,"ECCENTRICITY":0.0001481,"INCLINATION":53.2158,"RA_OF_ASC_NODE":212.9675,"ARG_OF_PERICENTER":88.3671,"MEAN_ANOMALY":271.7491,"EPHEMERIS_TYPE":0,"CLASSIFICATION_TYPE":"U","NORAD_CAT_ID":52649,"ELEMENT_SET_NO":999,"REV_AT_EPOCH":20058,"BSTAR":7.4288e-5,"MEAN_MOTION_DOT":8.95e-6,"MEAN_MOTION_DDOT":0},{"OBJECT_NAME":"STARLINK-3891","OBJECT_ID":"2022-052BE","EPOCH":"2025-12-29T20:17:07.029600","MEAN_MOTION":15.08847166,"ECCENTRICITY":0.0001476,"INCLINATION":53.2166,"RA_OF_ASC_NODE":202.7716,"ARG_OF_PERICENTER":88.0132,"MEAN_ANOMALY":272.1029,"EPHEMERIS_TYPE":0,"CLASSIFICATION_TYPE":"U","NORAD_CAT_ID":52650,"ELEMENT_SET_NO":999,"REV_AT_EPOCH":20073,"BSTAR":-0.00011627,"MEAN_MOTION_DOT":-2.138e-5,"MEAN_MOTION_DDOT":0},{"OBJECT_NAME":"STARLINK-4004","OBJECT_ID":"2022-053A","EPOCH":"2025-12-29T11:27:53.901216","MEAN_MOTION":15.08839693,"ECCENTRICITY":0.00013633,"INCLINATION":53.2152,"RA_OF_ASC_NODE":109.3241,"ARG_OF_PERICENTER":94.4329,"MEAN_ANOMALY":265.6819,"EPHEMERIS_TYPE":0,"CLASSIFICATION_TYPE":"U","NORAD_CAT_ID":52656,"ELEMENT_SET_NO":999,"REV_AT_EPOCH":20051,"BSTAR":6.4537225e-5,"MEAN_MOTION_DOT":7.39e-6,"MEAN_MOTION_DDOT":0},{"OBJECT_NAME":"STARLINK-4084","OBJECT_ID":"2022-053B","EPOCH":"2025-12-29T13:56:19.743648","MEAN_MOTION":15.08842135,"ECCENTRICITY":0.000127,"INCLINATION":53.218,"RA_OF_ASC_NODE":109.1672,"ARG_OF_PERICENTER":109.5375,"MEAN_ANOMALY":250.5754,"EPHEMERIS_TYPE":0,"CLASSIFICATION_TYPE":"U","NORAD_CAT_ID":52657,"ELEMENT_SET_NO":999,"REV_AT_EPOCH":20082,"BSTAR":1.423e-5,"MEAN_MOTION_DOT":-6.1e-7,"MEAN_MOTION_DDOT":0},{"OBJECT_NAME":"STARLINK-4082","OBJECT_ID":"2022-053C","EPOCH":"2025-12-29T14:42:35.709120","MEAN_MOTION":15.08839175,"ECCENTRICITY":0.0001162,"INCLINATION":53.2172,"RA_OF_ASC_NODE":108.7084,"ARG_OF_PERICENTER":88.2835,"MEAN_ANOMALY":271.829,"EPHEMERIS_TYPE":0,"CLASSIFICATION_TYPE":"U","NORAD_CAT_ID":52658,"ELEMENT_SET_NO":999,"REV_AT_EPOCH":20065,"BSTAR":4.7484e-5,"MEAN_MOTION_DOT":4.68e-6,"MEAN_MOTION_DDOT":0},{"OBJECT_NAME":"STARLINK-3960","OBJECT_ID":"2022-053D","EPOCH":"2025-12-29T11:26:30.901920","MEAN_MOTION":15.08839618,"ECCENTRICITY":0.00014565,"INCLINATION":53.2181,"RA_OF_ASC_NODE":109.273,"ARG_OF_PERICENTER":90.908,"MEAN_ANOMALY":269.2079,"EPHEMERIS_TYPE":0,"CLASSIFICATION_TYPE":"U","NORAD_CAT_ID":52659,"ELEMENT_SET_NO":999,"REV_AT_EPOCH":20062,"BSTAR":-4.4426588e-5,"MEAN_MOTION_DOT":-9.95e-6,"MEAN_MOTION_DDOT":0},{"OBJECT_NAME":"STARLINK-4081","OBJECT_ID":"2022-053E","EPOCH":"2025-12-29T14:31:59.685024","MEAN_MOTION":15.0884505,"ECCENTRICITY":0.0001025,"INCLINATION":53.2178,"RA_OF_ASC_NODE":108.7401,"ARG_OF_PERICENTER":98.4085,"MEAN_ANOMALY":261.7024,"EPHEMERIS_TYPE":0,"CLASSIFICATION_TYPE":"U","NORAD_CAT_ID":52660,"ELEMENT_SET_NO":999,"REV_AT_EPOCH":20053,"BSTAR":-0.00011321,"MEAN_MOTION_DOT":-2.089e-5,"MEAN_MOTION_DDOT":0},{"OBJECT_NAME":"STARLINK-4042","OBJECT_ID":"2022-053F","EPOCH":"2025-12-29T20:00:01.999008","MEAN_MOTION":15.2258588,"ECCENTRICITY":0.0001988,"INCLINATION":53.2173,"RA_OF_ASC_NODE":107.3104,"ARG_OF_PERICENTER":70.6341,"MEAN_ANOMALY":318.2192,"EPHEMERIS_TYPE":0,"CLASSIFICATION_TYPE":"U","NORAD_CAT_ID":52661,"ELEMENT_SET_NO":999,"REV_AT_EPOCH":578,"BSTAR":0.062983,"MEAN_MOTION_DOT":0.01637387,"MEAN_MOTION_DDOT":0},{"OBJECT_NAME":"STARLINK-4044","OBJECT_ID":"2022-053G","EPOCH":"2025-12-29T12:40:42.365568","MEAN_MOTION":15.08839754,"ECCENTRICITY":0.00015581,"INCLINATION":53.2189,"RA_OF_ASC_NODE":109.0852,"ARG_OF_PERICENTER":111.3861,"MEAN_ANOMALY":248.7298,"EPHEMERIS_TYPE":0,"CLASSIFICATION_TYPE":"U","NORAD_CAT_ID":52662,"ELEMENT_SET_NO":999,"REV_AT_EPOCH":20045,"BSTAR":4.0216828e-5,"MEAN_MOTION_DOT":3.52e-6,"MEAN_MOTION_DDOT":0},{"OBJECT_NAME":"STARLINK-4037","OBJECT_ID":"2022-053H","EPOCH":"2025-12-29T11:00:01.376064","MEAN_MOTION":15.08839281,"ECCENTRICITY":0.0001499,"INCLINATION":53.2169,"RA_OF_ASC_NODE":109.4029,"ARG_OF_PERICENTER":95.2213,"MEAN_ANOMALY":264.895,"EPHEMERIS_TYPE":0,"CLASSIFICATION_TYPE":"U","NORAD_CAT_ID":52663,"ELEMENT_SET_NO":999,"REV_AT_EPOCH":20044,"BSTAR":1.0024e-5,"MEAN_MOTION_DOT":-1.28e-6,"MEAN_MOTION_DDOT":0},{"OBJECT_NAME":"STARLINK-4070","OBJECT_ID":"2022-053J","EPOCH":"2025-12-29T12:46:00.683040","MEAN_MOTION":15.08835258,"ECCENTRICITY":0.0001604,"INCLINATION":53.2187,"RA_OF_ASC_NODE":109.0707,"ARG_OF_PERICENTER":87.2861,"MEAN_ANOMALY":272.8314,"EPHEMERIS_TYPE":0,"CLASSIFICATION_TYPE":"U","NORAD_CAT_ID":52664,"ELEMENT_SET_NO":999,"REV_AT_EPOCH":20045,"BSTAR":-2.6047e-5,"MEAN_MOTION_DOT":-7.02e-6,"MEAN_MOTION_DDOT":0},{"OBJECT_NAME":"STARLINK-4064","OBJECT_ID":"2022-053K","EPOCH":"2025-12-29T13:54:54.320832","MEAN_MOTION":15.08845058,"ECCENTRICITY":9.57e-5,"INCLINATION":53.2198,"RA_OF_ASC_NODE":108.8553,"ARG_OF_PERICENTER":96.3953,"MEAN_ANOMALY":263.7148,"EPHEMERIS_TYPE":0,"CLASSIFICATION_TYPE":"U","NORAD_CAT_ID":52665,"ELEMENT_SET_NO":999,"REV_AT_EPOCH":20046,"BSTAR":3.2701e-6,"MEAN_MOTION_DOT":-2.36e-6,"MEAN_MOTION_DDOT":0},{"OBJECT_NAME":"STARLINK-4079","OBJECT_ID":"2022-053L","EPOCH":"2025-12-29T13:12:26.325216","MEAN_MOTION":15.08836285,"ECCENTRICITY":0.0001251,"INCLINATION":53.2188,"RA_OF_ASC_NODE":108.6011,"ARG_OF_PERICENTER":79.7722,"MEAN_ANOMALY":280.3411,"EPHEMERIS_TYPE":0,"CLASSIFICATION_TYPE":"U","NORAD_CAT_ID":52666,"ELEMENT_SET_NO":999,"REV_AT_EPOCH":20046,"BSTAR":2.1805e-6,"MEAN_MOTION_DOT":-2.53e-6,"MEAN_MOTION_DDOT":0},{"OBJECT_NAME":"STARLINK-4076","OBJECT_ID":"2022-053M","EPOCH":"2025-12-28T13:58:48.526176","MEAN_MOTION":15.08844203,"ECCENTRICITY":0.0001208,"INCLINATION":53.218,"RA_OF_ASC_NODE":113.3317,"ARG_OF_PERICENTER":90.1408,"MEAN_ANOMALY":269.9723,"EPHEMERIS_TYPE":0,"CLASSIFICATION_TYPE":"U","NORAD_CAT_ID":52667,"ELEMENT_SET_NO":999,"REV_AT_EPOCH":20031,"BSTAR":1.798e-5,"MEAN_MOTION_DOT":-2.0e-8,"MEAN_MOTION_DDOT":0},{"OBJECT_NAME":"STARLINK-4067","OBJECT_ID":"2022-053N","EPOCH":"2025-12-29T12:24:48.730752","MEAN_MOTION":15.08836894,"ECCENTRICITY":0.00012312,"INCLINATION":53.2197,"RA_OF_ASC_NODE":109.1404,"ARG_OF_PERICENTER":58.7021,"MEAN_ANOMALY":301.4091,"EPHEMERIS_TYPE":0,"CLASSIFICATION_TYPE":"U","NORAD_CAT_ID":52668,"ELEMENT_SET_NO":999,"REV_AT_EPOCH":20045,"BSTAR":2.1421489e-5,"MEAN_MOTION_DOT":5.3e-7,"MEAN_MOTION_DDOT":0},{"OBJECT_NAME":"STARLINK-3972","OBJECT_ID":"2022-053P","EPOCH":"2025-12-29T13:33:40.186944","MEAN_MOTION":15.08884635,"ECCENTRICITY":9.75e-5,"INCLINATION":53.2166,"RA_OF_ASC_NODE":108.9214,"ARG_OF_PERICENTER":85.001,"MEAN_ANOMALY":275.1093,"EPHEMERIS_TYPE":0,"CLASSIFICATION_TYPE":"U","NORAD_CAT_ID":52669,"ELEMENT_SET_NO":999,"REV_AT_EPOCH":20045,"BSTAR":0.00071816,"MEAN_MOTION_DOT":0.00011174,"MEAN_MOTION_DDOT":0},{"OBJECT_NAME":"STARLINK-4075","OBJECT_ID":"2022-053Q","EPOCH":"2025-12-29T10:54:44.205120","MEAN_MOTION":15.08839165,"ECCENTRICITY":0.0001533,"INCLINATION":53.2167,"RA_OF_ASC_NODE":109.483,"ARG_OF_PERICENTER":91.8874,"MEAN_ANOMALY":268.2294,"EPHEMERIS_TYPE":0,"CLASSIFICATION_TYPE":"U","NORAD_CAT_ID":52670,"ELEMENT_SET_NO":999,"REV_AT_EPOCH":20044,"BSTAR":-3.1287e-5,"MEAN_MOTION_DOT":-7.86e-6,"MEAN_MOTION_DDOT":0},{"OBJECT_NAME":"STARLINK-4071","OBJECT_ID":"2022-053R","EPOCH":"2025-12-29T11:53:01.322016","MEAN_MOTION":15.08849884,"ECCENTRICITY":0.0001122,"INCLINATION":53.2179,"RA_OF_ASC_NODE":109.2366,"ARG_OF_PERICENTER":61.7375,"MEAN_ANOMALY":298.373,"EPHEMERIS_TYPE":0,"CLASSIFICATION_TYPE":"U","NORAD_CAT_ID":52671,"ELEMENT_SET_NO":999,"REV_AT_EPOCH":20044,"BSTAR":0.00011248,"MEAN_MOTION_DOT":1.503e-5,"MEAN_MOTION_DDOT":0},{"OBJECT_NAME":"STARLINK-4073","OBJECT_ID":"2022-053S","EPOCH":"2025-12-29T12:08:56.193216","MEAN_MOTION":15.08809653,"ECCENTRICITY":0.0001222,"INCLINATION":53.2188,"RA_OF_ASC_NODE":109.1873,"ARG_OF_PERICENTER":81.4704,"MEAN_ANOMALY":278.6426,"EPHEMERIS_TYPE":0,"CLASSIFICATION_TYPE":"U","NORAD_CAT_ID":52672,"ELEMENT_SET_NO":999,"REV_AT_EPOCH":20044,"BSTAR":0.00094676383,"MEAN_MOTION_DOT":0.00014799,"MEAN_MOTION_DDOT":0},{"OBJECT_NAME":"STARLINK-3976","OBJECT_ID":"2022-053T","EPOCH":"2025-12-29T14:53:11.230368","MEAN_MOTION":15.0884461,"ECCENTRICITY":0.0001391,"INCLINATION":53.2191,"RA_OF_ASC_NODE":108.6761,"ARG_OF_PERICENTER":91.5165,"MEAN_ANOMALY":268.5987,"EPHEMERIS_TYPE":0,"CLASSIFICATION_TYPE":"U","NORAD_CAT_ID":52673,"ELEMENT_SET_NO":999,"REV_AT_EPOCH":20046,"BSTAR":4.9545e-5,"MEAN_MOTION_DOT":5.01e-6,"MEAN_MOTION_DDOT":0}]
